ONEWEB-0387             
1 49313U 21090AL  23361.80024631 -.00000101  00000+0 -28124-3 0  9994
2 49313  87.9200  94.1341 0001754  93.5331 266.6002 13.20768145110709
ONEWEB-0388             
1 49314U 21090AM  23361.88473510 -.00000109  00000+0 -30504-3 0  9990
2 49314  87.9199 124.5799 0001444 107.3740 252.7550 13.19725759107405
ONEWEB-0389             
1 50469U 21132A   23361.92524027 -.00000062  00000+0 -19285-3 0  9996
2 50469  87.9210 185.2531 0001668  73.5207 286.6108 13.17647442 99269
ONEWEB-0390             
1 50470U 21132B   23361.54714859  .00000061  00000+0  12478-3 0  9994
2 50470  87.9212 185.3362 0001903  85.6582 274.4767 13.17649621100505
ONEWEB-0391             
1 50471U 21132C   23361.54873663  .00000043  00000+0  76450-4 0  9995
2 50471  87.9211 185.3057 0001414  69.2219 290.9064 13.17652066 99213
ONEWEB-0392             
1 50472U 21132D   23361.57879646  .00000022  00000+0  23010-4 0  9997
2 50472  87.9196 185.3256 0001633  76.4502 283.6811 13.17649433 99252
ONEWEB-0393             
1 50473U 21132E   23361.89125433  .00000001  00000+0 -29832-4 0  9997
2 50473  87.9208 185.2386 0001799  87.5122 272.6216 13.17649763 99280
ONEWEB-0394             
1 50474U 21132F   23361.92625773  .00000062  00000+0  12568-3 0  9997
2 50474  87.9217 154.9772 0001403  88.4548 271.6745 13.18684774102684
ONEWEB-0395             
1 50475U 21132G   23361.65290321 -.00000192  00000+0 -57815-3 0  9995
2 50475  87.8956 200.4601 0001635  78.1181 282.0131 13.11415348 97420
ONEWEB-0396             
1 50476U 21132H   23361.91990303  .00000046  00000+0  84905-4 0  9999
2 50476  87.9216 154.9700 0001301  93.4033 266.7248 13.18688678102723
ONEWEB-0397             
1 50477U 21132J   23361.85839878  .00000065  00000+0  13287-3 0  9997
2 50477  87.9216 154.9833 0001264  88.9629 271.1648 13.18782471103966
ONEWEB-0398             
1 50478U 21132K   23361.62045137  .00000463  00000+0  12697-2 0  9995
2 50478  87.8955 200.4528 0001919  80.9355 279.1990 13.11417287 97311
ONEWEB-0399             
1 50479U 21132L   23361.60582735 -.00000061  00000+0 -20924-3 0  9993
2 50479  87.8957 200.4695 0001022  83.8252 276.2992 13.11419337 97309
ONEWEB-0400             
1 50480U 21132M   23361.91359914  .00000016  00000+0  88332-5 0  9997
2 50480  87.9217 154.9807 0001752  97.3712 262.7619 13.18686641103978
ONEWEB-0401             
1 50481U 21132N   23361.88027200  .00000013  00000+0 -66152-6 0  9999
2 50481  87.9216 154.9871 0001159 104.5743 255.5517 13.18591337102697
ONEWEB-0402             
1 50482U 21132P   23361.92161983  .00000000  00000+0 -32158-4 0  9995
2 50482  87.9215 154.9756 0001423 122.3081 237.8189 13.18784012102722
ONEWEB-0403             
1 50483U 21132Q   23361.86934819 -.00000004  00000+0 -43498-4 0  9999
2 50483  87.9218 154.9902 0001224  93.1982 266.9290 13.18684693102677
ONEWEB-0404             
1 50484U 21132R   23361.74055593 -.00000451  00000+0 -13077-2 0  9994
2 50484  87.8963 200.4014 0001355  62.8838 297.2428 13.11415158 97419
ONEWEB-0405             
1 50485U 21132S   23361.88515826  .00000034  00000+0  54387-4 0  9996
2 50485  87.9219 154.9763 0001092 111.7164 248.4085 13.18684787104366
ONEWEB-0406             
1 50486U 21132T   23361.87395377 -.00000005  00000+0 -46631-4 0  9996
2 50486  87.9215 154.9872 0001358  77.9985 282.1299 13.18589682102709
ONEWEB-0407             
1 50487U 21132U   23361.86762708  .00000038  00000+0  64961-4 0  9992
2 50487  87.9216 154.9970 0001275  99.4257 260.7019 13.18587066102648
ONEWEB-0409             
1 50488U 21132V   23362.12042525 -.00000463  00000+0 -13413-2 0  9999
2 50488  87.8955 200.3366 0001647  75.5567 284.5744 13.11416643 98632
ONEWEB-0412             
1 50489U 21132W   23361.47730707  .00000054  00000+0  10436-3 0  9990
2 50489  87.9219 155.0653 0000919 109.3877 250.7354 13.18685809102685
ONEWEB-0413             
1 50490U 21132X   23361.86132198  .00000059  00000+0  11667-3 0  9997
2 50490  87.9220 155.0033 0001176 110.7297 249.3961 13.18586031103966
ONEWEB-0414             
1 50491U 21132Y   23361.92309286  .00000040  00000+0  69134-4 0  9992
2 50491  87.9216 154.9764 0001088  96.6222 263.5034 13.18686726102716
ONEWEB-0417             
1 50492U 21132Z   23361.93087877 -.00000026  00000+0 -97884-4 0  9992
2 50492  87.9224 154.9654 0001559  85.2127 274.9183 13.18586235103980
ONEWEB-0418             
1 50493U 21132AA  23361.86850106  .00000039  00000+0  66274-4 0  9999
2 50493  87.9218 154.9896 0001582  76.4916 283.6393 13.18637384102741
ONEWEB-0419             
1 50494U 21132AB  23361.88197571  .00000096  00000+0  20953-3 0  9998
2 50494  87.9216 155.0089 0001796  88.6723 271.4615 13.18685587103958
ONEWEB-0420             
1 50495U 21132AC  23361.92455153  .00000035  00000+0  56624-4 0  9995
2 50495  87.9216 155.0082 0001505 109.3810 250.7485 13.18586821103965
ONEWEB-0421             
1 50496U 21132AD  23361.91822215  .00000109  00000+0  24403-3 0  9993
2 50496  87.9223 154.9623 0000939  94.6271 265.4968 13.18591774102703
ONEWEB-0424             
1 50497U 21132AE  23361.87735932  .00000036  00000+0  59295-4 0  9995
2 50497  87.9219 154.9848 0002056  90.8843 269.2525 13.18784050102727
ONEWEB-0426             
1 50498U 21132AF  23361.91530778  .00000051  00000+0  95405-4 0  9992
2 50498  87.9216 155.0014 0001130  71.9155 288.2100 13.18778271103965
ONEWEB-0427             
1 50499U 21132AG  23361.87565249  .00000031  00000+0  45180-4 0  9992
2 50499  87.9216 154.9845 0001486  87.7385 272.3918 13.18687526102692
ONEWEB-0429             
1 50500U 21132AH  23361.93890244 -.00000044  00000+0 -14415-3 0  9990
2 50500  87.9204 154.9690 0001483  99.0475 261.0824 13.18684289103968
ONEWEB-0430             
1 50501U 21132AJ  23361.85209054  .00004524  00000+0  11425-1 0  9996
2 50501  87.9219 154.9950 0001980  88.1504 271.9855 13.18759411103995
ONEWEB-0432             
1 50502U 21132AK  23361.95958306 -.00000051  00000+0 -16211-3 0  9992
2 50502  87.9218 154.9681 0001585  99.6412 260.4900 13.18784212103971
ONEWEB-0440             
1 50503U 21132AL  23361.87103141 -.00000024  00000+0 -92958-4 0  9996
2 50503  87.9222 154.9693 0001054 119.5301 240.5936 13.18786380102650
ONEWEB-0450             
1 50504U 21132AM  23361.86472236 -.00000016  00000+0 -74181-4 0  9999
2 50504  87.9187 155.0000 0001662 110.4871 249.6439 13.18781465103975
ONEWEB-0410             
1 51622U 22012A   23361.56455948  .00000018  00000+0  12204-4 0  9995
2 51622  87.9198 185.3138 0001440  40.3888 319.7351 13.17648736 96122
ONEWEB-0411             
1 51623U 22012B   23361.69660338 -.00000387  00000+0 -11442-2 0  9993
2 51623  87.8902 215.5019 0001733  86.6075 273.5250 13.10371554 91095
ONEWEB-0415             
1 51624U 22012C   23361.61700848 -.00000234  00000+0 -70755-3 0  9991
2 51624  87.8904 215.5467 0001788  80.6557 279.4773 13.10367107 91087
ONEWEB-0416             
1 51625U 22012D   23362.16286206 -.00000578  00000+0 -16915-2 0  9998
2 51625  87.8906 215.4247 0001340  85.7445 274.3836 13.10372189 92486
ONEWEB-0422             
1 51626U 22012E   23361.57405161  .00000043  00000+0  77072-4 0  9994
2 51626  87.9201 185.3083 0001504 121.8302 238.2976 13.17651322 94948
ONEWEB-0423             
1 51627U 22012F   23361.56772743  .00000012  00000+0 -16357-5 0  9994
2 51627  87.9204 185.3073 0001374  91.7921 268.3368 13.17651979 94833
ONEWEB-0425             
1 51628U 22012G   23361.63812898 -.00000552  00000+0 -16186-2 0  9996
2 51628  87.8905 215.5176 0000980  70.3856 289.7377 13.10374318 91121
ONEWEB-0428             
1 51629U 22012H   23361.69498232 -.00000328  00000+0 -97541-3 0  9991
2 51629  87.8901 215.5192 0001543  97.8673 262.2629 13.10370898 91094
ONEWEB-0431             
1 51630U 22012J   23362.12213995  .00000656  00000+0  18415-2 0  9997
2 51630  87.8900 215.4426 0002117  92.3866 267.7504 13.10374349 92498
ONEWEB-0434             
1 51631U 22012K   23361.64136270 -.00000405  00000+0 -11974-2 0  9991
2 51631  87.8910 215.5409 0001305  95.2062 264.9214 13.10376264 91124
ONEWEB-0435             
1 51632U 22012L   23361.64948638  .00000059  00000+0  13416-3 0  9998
2 51632  87.8911 215.5292 0001464 102.6595 257.4696 13.10378371 91117
ONEWEB-0436             
1 51633U 22012M   23362.01544234  .00000048  00000+0  89615-4 0  9998
2 51633  87.9197 185.2312 0001449 101.2824 258.8471 13.17650854 96166
ONEWEB-0438             
1 51634U 22012N   23362.16773557 -.00000449  00000+0 -13236-2 0  9998
2 51634  87.8908 215.4274 0001160  80.9744 279.1514 13.10370469 92505
ONEWEB-0439             
1 51635U 22012P   23361.63649001 -.00000560  00000+0 -16401-2 0  9997
2 51635  87.8909 215.5163 0001456  84.1544 275.9749 13.10376921 91127
ONEWEB-0442             
1 51636U 22012Q   23361.93158299 -.00000016  00000+0 -73923-4 0  9995
2 51636  87.9205 185.2765 0001682  62.9850 297.1453 13.17647628 96141
ONEWEB-0443             
1 51637U 22012R   23361.87462806 -.00000044  00000+0 -14637-3 0  9998
2 51637  87.9204 185.2926 0001211 112.1458 247.9802 13.17647724 94898
ONEWEB-0444             
1 51638U 22012S   23362.16123712 -.00000467  00000+0 -13747-2 0  9991
2 51638  87.8908 215.4420 0001316  93.8082 266.3196 13.10371356 92491
ONEWEB-0445             
1 51639U 22012T   23361.64786144 -.00000693  00000+0 -20214-2 0  9996
2 51639  87.8902 215.5243 0001608  72.0713 288.0589 13.10375742 91145
ONEWEB-0446             
1 51640U 22012U   23362.15964061 -.00000448  00000+0 -13203-2 0  9999
2 51640  87.8903 215.4317 0001656  82.4619 277.6696 13.10370526 92499
ONEWEB-0448             
1 51641U 22012V   23362.16450073 -.00000528  00000+0 -15495-2 0  9998
2 51641  87.8905 215.4325 0001247  93.4568 266.6701 13.10373074 92454
ONEWEB-0449             
1 51642U 22012W   23362.09300614 -.00000548  00000+0 -16067-2 0  9994
2 51642  87.8901 215.4513 0001214  76.0565 284.0697 13.10374730 92467
